GLOBALSTAR M094 [+]     
1 39074U 13005C   24030.96210998 -.00000081  00000+0  12739-3 0  9999
2 39074  51.9953 274.2907 0000535  76.6342 283.4584 12.62263134508826
GLOBALSTAR M096 [+]     
1 39075U 13005D   24032.08412235 -.00000071  00000+0  18310-3 0  9993
2 39075  52.0096 318.9980 0000238  59.2078 300.8813 12.62271957507883
GLOBALSTAR M078 [+]     
1 39076U 13005E   24032.45378226 -.00000086  00000+0  10117-3 0  9999
2 39076  51.9885  43.0630 0001283 138.0539 222.0426 12.62259731506559
GLOBALSTAR M095 [+]     
1 39077U 13005F   24032.40057633 -.00000103  00000+0  21325-5 0  9996
2 39077  51.9813  40.6681 0000745 164.3854 195.7036 12.62262915506409
GLOBALSTAR M087 [+]     
1 52888U 22064A   24031.99191418 -.00000081  00000+0  90763-4 0  9995
2 52888  51.9778 326.7728 0009824  19.1341 340.9927 13.37563866 79162
